{"type": "FeatureCollection", "features": [ {"type": "Feature", "properties": {"norad_id": 43622, "name": "BEIDOU-3 M13 (C32)", "group": "beidou", "lat": -11.869923374517604, "lon": -103.40165306211718, "alt_km": 21534.120017588873, "timestamp": "2025-12-19T22:41:52.657078+00:00", "meta": {"OBJECT_NAME": "BEIDOU-3 M13 (C32)", "OBJECT_ID": "2018-072A", "EPOCH": "2025-12-19T15:44:25.442592", "MEAN_MOTION": 1.86231092, "ECCENTRICITY": 0.0006094, "INCLINATION": 56.4653, "RA_OF_ASC_NODE": 68.5911, "ARG_OF_PERICENTER": 298.8206, "MEAN_ANOMALY": 61.1557, "EPHEMERIS_TYPE": 0, "CLASSIFICATION_TYPE": "U", "NORAD_CAT_ID": 43622, "ELEMENT_SET_NO": 999, "REV_AT_EPOCH": 4931, "BSTAR": 0, "MEAN_MOTION_DOT": -5.1e-07, "MEAN_MOTION_DDOT": 0}, "tle": {"line1": "1 43622U 18072A   25353.65585003 -.00000051  00000+0  00000+0 0  9990", "line2": "2 43622  56.4653  68.5911 0006094 298.8206  61.1557  1.86231092 49316"}}, "geometry": {"type": "Point", "coordinates": [-103.40165306211718, -11.869923374517604]}}, {"type": "Feature", "properties": {"norad_id": 43623, "name": "BEIDOU-3 M14 (C33)", "group": "beidou", "lat": -53.8165408950952, "lon": 3.740295610693817, "alt_km": 21527.238588393844, "timestamp": "2025-12-19T22:41:52.657090+00:00", "meta": {"OBJECT_NAME": "BEIDOU-3 M14 (C33)", "OBJECT_ID": "2018-072B", "EPOCH": "2025-12-19T12:30:41.620320", "MEAN_MOTION": 1.86231112, "ECCENTRICITY": 0.0003397, "INCLINATION": 56.4667, "RA_OF_ASC_NODE": 68.5895, "ARG_OF_PERICENTER": 329.9206, "MEAN_ANOMALY": 30.0966, "EPHEMERIS_TYPE": 0, "CLASSIFICATION_TYPE": "U", "NORAD_CAT_ID": 43623, "ELEMENT_SET_NO": 999, "REV_AT_EPOCH": 4930, "BSTAR": 0, "MEAN_MOTION_DOT": -5.2e-07, "MEAN_MOTION_DDOT": 0}, "tle": {"line1": "1 43623U 18072B   25353.52131505 -.00000052  00000+0  00000+0 0  9992", "line2": "2 43623  56.4667  68.5895 0003397 329.9206  30.0966  1.86231112 49303"}}, "geometry": {"type": "Point", "coordinates": [3.740295610693817, -53.8165408950952]}}, {"type": "Feature", "properties": {"norad_id": 43647, "name": "BEIDOU-3 M16 (C35)", "group": "beidou", "lat": 0.8725950383595069, "lon": 125.61733874775577, "alt_km": 21547.137695892226, "timestamp": "2025-12-19T22:41:52.657101+00:00", "meta": {"OBJECT_NAME": "BEIDOU-3 M16 (C35)", "OBJECT_ID": "2018-078A", "EPOCH": "2025-12-18T14:31:23.928384", "MEAN_MOTION": 1.86232416, "ECCENTRICITY": 0.00073312, "INCLINATION": 54.2565, "RA_OF_ASC_NODE": 306.3163, "ARG_OF_PERICENTER": 19.8035, "MEAN_ANOMALY": 340.2135, "EPHEMERIS_TYPE": 0, "CLASSIFICATION_TYPE": "U", "NORAD_CAT_ID": 43647, "ELEMENT_SET_NO": 999, "REV_AT_EPOCH": 4879, "BSTAR": 0, "MEAN_MOTION_DOT": -8.1e-07, "MEAN_MOTION_DDOT": 0}, "tle": {"line1": "1 43647U 18078A   25352.60513806 -.00000081  00000+0  00000+0 0  9992", "line2": "2 43647  54.2565 306.3163 0007331  19.8035 340.2135  1.86232416 48794"}}, "geometry": {"type": "Point", "coordinates": [125.61733874775577, 0.8725950383595069]}}, {"type": "Feature", "properties": {"norad_id": 43648, "name": "BEIDOU-3 M15 (C34)", "group": "beidou", "lat": 54.19850218058057, "lon": 40.115021671200374, "alt_km": 21518.21531519705, "timestamp": "2025-12-19T22:41:52.657112+00:00", "meta": {"OBJECT_NAME": "BEIDOU-3 M15 (C34)", "OBJECT_ID": "2018-078B", "EPOCH": "2025-12-19T06:30:41.361984", "MEAN_MOTION": 1.86232317, "ECCENTRICITY": 0.0003969, "INCLINATION": 54.2518, "RA_OF_ASC_NODE": 306.2933, "ARG_OF_PERICENTER": 20.1104, "MEAN_ANOMALY": 339.8954, "EPHEMERIS_TYPE": 0, "CLASSIFICATION_TYPE": "U", "NORAD_CAT_ID": 43648, "ELEMENT_SET_NO": 999, "REV_AT_EPOCH": 4882, "BSTAR": 0, "MEAN_MOTION_DOT": -7.6e-07, "MEAN_MOTION_DDOT": 0}, "tle": {"line1": "1 43648U 18078B   25353.27131206 -.00000076  00000+0  00000+0 0  9991", "line2": "2 43648  54.2518 306.2933 0003969  20.1104 339.8954  1.86232317 48829"}}, "geometry": {"type": "Point", "coordinates": [40.115021671200374, 54.19850218058057]}}, {"type": "Feature", "properties": {"norad_id": 43683, "name": "BEIDOU-3 G1 (C59)", "group": "beidou", "lat": 2.50171733372832, "lon": -150.69049472956434, "alt_km": 35783.18855495499, "timestamp": "2025-12-19T22:41:52.657132+00:00", "meta": {"OBJECT_NAME": "BEIDOU-3 G1 (C59)", "OBJECT_ID": "2018-085A", "EPOCH": "2025-12-19T19:03:56.078784", "MEAN_MOTION": 1.00268797, "ECCENTRICITY": 0.0001615, "INCLINATION": 2.6247, "RA_OF_ASC_NODE": 102.7592, "ARG_OF_PERICENTER": 47.0734, "MEAN_ANOMALY": 4.816, "EPHEMERIS_TYPE": 0, "CLASSIFICATION_TYPE": "U", "NORAD_CAT_ID": 43683, "ELEMENT_SET_NO": 999, "REV_AT_EPOCH": 2626, "BSTAR": 0, "MEAN_MOTION_DOT": -2.56e-06, "MEAN_MOTION_DDOT": 0}, "tle": {"line1": "1 43683U 18085A   25353.79439906 -.00000256  00000+0  00000+0 0  9993", "line2": "2 43683   2.6247 102.7592 0001615  47.0734   4.8160  1.00268797 26266"}}, "geometry": {"type": "Point", "coordinates": [-150.69049472956434, 2.50171733372832]}}, {"type": "Feature", "properties": {"norad_id": 43706, "name": "BEIDOU-3 M17 (C36)", "group": "beidou", "lat": -11.467309443362726, "lon": 179.95160381474858, "alt_km": 21516.65363398133, "timestamp": "2025-12-19T22:41:52.657144+00:00", "meta": {"OBJECT_NAME": "BEIDOU-3 M17 (C36)", "OBJECT_ID": "2018-093A", "EPOCH": "2025-12-19T16:50:45.209760", "MEAN_MOTION": 1.86228501, "ECCENTRICITY": 0.0006072, "INCLINATION": 54.1746, "RA_OF_ASC_NODE": 188.3854, "ARG_OF_PERICENTER": 307.8819, "MEAN_ANOMALY": 234.4543, "EPHEMERIS_TYPE": 0, "CLASSIFICATION_TYPE": "U", "NORAD_CAT_ID": 43706, "ELEMENT_SET_NO": 999, "REV_AT_EPOCH": 4819, "BSTAR": 0, "MEAN_MOTION_DOT": 1e-06, "MEAN_MOTION_DDOT": 0}, "tle": {"line1": "1 43706U 18093A   25353.70191215  .00000100  00000+0  00000+0 0  9994", "line2": "2 43706  54.1746 188.3854 0006072 307.8819 234.4543  1.86228501 48197"}}, "geometry": {"type": "Point", "coordinates": [179.95160381474858, -11.467309443362726]}}, {"type": "Feature", "properties": {"norad_id": 43707, "name": "BEIDOU-3 M18 (C37)", "group": "beidou", "lat": 52.62793658254971, "lon": -100.47129467318148, "alt_km": 21520.841287341333, "timestamp": "2025-12-19T22:41:52.657155+00:00", "meta": {"OBJECT_NAME": "BEIDOU-3 M18 (C37)", "OBJECT_ID": "2018-093B", "EPOCH": "2025-12-16T14:33:42.784416", "MEAN_MOTION": 1.8622677, "ECCENTRICITY": 0.00063186, "INCLINATION": 54.1735, "RA_OF_ASC_NODE": 188.4822, "ARG_OF_PERICENTER": 353.2257, "MEAN_ANOMALY": 6.8349, "EPHEMERIS_TYPE": 0, "CLASSIFICATION_TYPE": "U", "NORAD_CAT_ID": 43707, "ELEMENT_SET_NO": 999, "REV_AT_EPOCH": 4813, "BSTAR": 0, "MEAN_MOTION_DOT": 1.15e-06, "MEAN_MOTION_DDOT": 0}, "tle": {"line1": "1 43707U 18093B   25350.60674519  .00000115  00000+0  00000+0 0  9990", "line2": "2 43707  54.1735 188.4822 0006318 353.2257   6.8349  1.86226770 48131"}}, "geometry": {"type": "Point", "coordinates": [-100.47129467318148, 52.62793658254971]}}, {"type": "Feature", "properties": {"norad_id": 44231, "name": "BEIDOU-2 G8 (C01)", "group": "beidou", "lat": 1.0877544740852156, "lon": -146.3796131256578, "alt_km": 35801.55716190987, "timestamp": "2025-12-19T22:41:52.657167+00:00", "meta": {"OBJECT_NAME": "BEIDOU-2 G8 (C01)", "OBJECT_ID": "2019-027A", "EPOCH": "2025-12-19T12:14:23.449632", "MEAN_MOTION": 1.00276563, "ECCENTRICITY": 0.0008196, "INCLINATION": 1.6785, "RA_OF_ASC_NODE": 74.7229, "ARG_OF_PERICENTER": 258.5641, "MEAN_ANOMALY": 83.1013, "EPHEMERIS_TYPE": 0, "CLASSIFICATION_TYPE": "U", "NORAD_CAT_ID": 44231, "ELEMENT_SET_NO": 999, "REV_AT_EPOCH": 2427, "BSTAR": 0, "MEAN_MOTION_DOT": -2.24e-06, "MEAN_MOTION_DDOT": 0}, "tle": {"line1": "1 44231U 19027A   25353.50999363 -.00000224  00000+0  00000+0 0  9992", "line2": "2 44231   1.6785  74.7229 0008196 258.5641  83.1013  1.00276563 24270"}}, "geometry": {"type": "Point", "coordinates": [-146.3796131256578, 1.0877544740852156]}}, {"type": "Feature", "properties": {"norad_id": 44337, "name": "BEIDOU-3 IGSO-2 (C39)", "group": "beidou", "lat": 22.847788171457694, "lon": 177.47011563111525, "alt_km": 35941.7415705156, "timestamp": "2025-12-19T22:41:52.657179+00:00", "meta": {"OBJECT_NAME": "BEIDOU-3 IGSO-2 (C39)", "OBJECT_ID": "2019-035A", "EPOCH": "2025-12-19T08:42:01.647648", "MEAN_MOTION": 1.00269441, "ECCENTRICITY": 0.0037558, "INCLINATION": 55.2276, "RA_OF_ASC_NODE": 160.4432, "ARG_OF_PERICENTER": 202.2196, "MEAN_ANOMALY": 335.4821, "EPHEMERIS_TYPE": 0, "CLASSIFICATION_TYPE": "U", "NORAD_CAT_ID": 44337, "ELEMENT_SET_NO": 999, "REV_AT_EPOCH": 2386, "BSTAR": 0, "MEAN_MOTION_DOT": -5.7e-07, "MEAN_MOTION_DDOT": 0}, "tle": {"line1": "1 44337U 19035A   25353.36251907 -.00000057  00000+0  00000+0 0  9991", "line2": "2 44337  55.2276 160.4432 0037558 202.2196 335.4821  1.00269441 23862"}}, "geometry": {"type": "Point", "coordinates": [177.47011563111525, 22.847788171457694]}}, {"type": "Feature", "properties": {"norad_id": 44542, "name": "BEIDOU-3 M24 (C46)", "group": "beidou", "lat": 24.82212820942644, "lon": -151.85779845313303, "alt_km": 21498.51792700505, "timestamp": "2025-12-19T22:41:52.657199+00:00", "meta": {"OBJECT_NAME": "BEIDOU-3 M24 (C46)", "OBJECT_ID": "2019-061A", "EPOCH": "2025-12-19T08:42:00.476928", "MEAN_MOTION": 1.86229413, "ECCENTRICITY": 0.0009604, "INCLINATION": 54.4002, "RA_OF_ASC_NODE": 188.7925, "ARG_OF_PERICENTER": 25.2605, "MEAN_ANOMALY": 334.8488, "EPHEMERIS_TYPE": 0, "CLASSIFICATION_TYPE": "U", "NORAD_CAT_ID": 44542, "ELEMENT_SET_NO": 999, "REV_AT_EPOCH": 4244, "BSTAR": 0, "MEAN_MOTION_DOT": 1.03e-06, "MEAN_MOTION_DDOT": 0}, "tle": {"line1": "1 44542U 19061A   25353.36250552  .00000103  00000+0  00000+0 0  9994", "line2": "2 44542  54.4002 188.7925 0009604  25.2605 334.8488  1.86229413 42443"}}, "geometry": {"type": "Point", "coordinates": [-151.85779845313303, 24.82212820942644]}}]}